{"epoch":1784799577,"count":18318,"objects":[{"id":"39418","name":"SKYSAT 1","type":"PAYLOAD","l1":"1 39418U 13066C   26203.37400180  .00002256  00000-0  13028-3 0  9999","l2":"2 39418  97.3797 251.6497 0021147 187.9064 172.1837 15.13143261693805"},{"id":"40072","name":"SKYSAT 2","type":"PAYLOAD","l1":"1 40072U 14037D   26202.62025596  .00000881  00000-0  10248-3 0  9990","l2":"2 40072  98.3858 163.5543 0006020 153.0763 207.0765 14.88102443651088"},{"id":"41601","name":"SKYSAT C1","type":"PAYLOAD","l1":"1 41601U 16040C   26203.05666916  .00009079  00000-0  25428-3 0  9994","l2":"2 41601  96.9555 232.8956 0000845 190.2367 169.8861 15.36827669563223"},{"id":"41771","name":"SKYSAT C4","type":"PAYLOAD","l1":"1 41771U 16058B   26203.85939802  .00019456  00000-0  35289-3 0  9992","l2":"2 41771  96.9177 224.1612 0003568 108.5272 251.6368 15.49627091550999"},{"id":"41772","name":"SKYSAT C5","type":"PAYLOAD","l1":"1 41772U 16058C   26203.90986042  .00007886  00000-0  24350-3 0  9998","l2":"2 41772  97.0455 242.9394 0003373 142.5328 217.6151 15.33795792549223"},{"id":"41773","name":"SKYSAT C2","type":"PAYLOAD","l1":"1 41773U 16058D   26203.48604645  .00012197  00000-0  28038-3 0  9996","l2":"2 41773  97.0165 224.2677 0000660 287.0697  73.0479 15.42800155550497"},{"id":"41774","name":"SKYSAT C3","type":"PAYLOAD","l1":"1 41774U 16058E   26203.06072799  .00024954  00000-0  38777-3 0  9995","l2":"2 41774  96.9001 232.5963 0002801 124.5445 235.6075 15.53929029551527"},{"id":"42987","name":"SKYSAT C11","type":"PAYLOAD","l1":"1 42987U 17068A   26203.68512260  .00031225  00000-0  39233-3 0  9991","l2":"2 42987  97.4384 354.1178 0001506 150.3189 209.8153 15.59645696488773"},{"id":"42988","name":"SKYSAT C10","type":"PAYLOAD","l1":"1 42988U 17068B   26203.82158753  .00011170  00000-0  32886-3 0  9995","l2":"2 42988  97.4541 341.0397 0001544 109.9336 250.2073 15.35228657487827"},{"id":"42989","name":"SKYSAT C9","type":"PAYLOAD","l1":"1 42989U 17068C   26203.34660832  .00013430  00000-0  31312-3 0  9993","l2":"2 42989  97.4462 341.8360 0008033  20.5738 339.5831 15.42337273488177"},{"id":"42990","name":"SKYSAT C8","type":"PAYLOAD","l1":"1 42990U 17068D   26203.60796554  .00010833  00000-0  29579-3 0  9991","l2":"2 42990  97.4558 340.7600 0001332 107.9214 252.2176 15.37595654487753"},{"id":"42991","name":"SKYSAT C7","type":"PAYLOAD","l1":"1 42991U 17068E   26203.60268653  .00010747  00000-0  29386-3 0  9996","l2":"2 42991  97.4569 341.7470 0004995 354.8309   5.2883 15.37543775487813"},{"id":"42992","name":"SKYSAT C6","type":"PAYLOAD","l1":"1 42992U 17068F   26203.82402321  .00009984  00000-0  30323-3 0  9997","l2":"2 42992  97.4608 341.7906 0004820  69.9095 290.2666 15.34265225487784"},{"id":"43797","name":"SKYSAT C12","type":"PAYLOAD","l1":"1 43797U 18099AR  26203.80795808  .00019251  00000-0  34485-3 0  9990","l2":"2 43797  96.9255 225.6366 0004683  53.7803 306.3882 15.49979178427378"}]}